{
    "CCSDS_OMM_VERS": "3.0",
    "COMMENT": "GENERATED VIA SPACE-TRACK.ORG API",
    "CREATION_DATE": "2025-11-23T21:08:43",
    "ORIGINATOR": "18 SPCS",
    "OBJECT_NAME": "COSMOS 2474 (GLONASS)",
    "OBJECT_ID": "2011-055A",
    "CENTER_NAME": "EARTH",
    "REF_FRAME": "TEME",
    "TIME_SYSTEM": "UTC",
    "MEAN_ELEMENT_THEORY": "SGP4",
    "EPOCH": "2025-11-22T02:08:38.665824",
    "MEAN_MOTION": "2.13101202",
    "ECCENTRICITY": "0.00109248",
    "INCLINATION": "65.1711",
    "RA_OF_ASC_NODE": "79.8770",
    "ARG_OF_PERICENTER": "240.2182",
    "MEAN_ANOMALY": "118.0116",
    "EPHEMERIS_TYPE": "0",
    "CLASSIFICATION_TYPE": "U",
    "NORAD_CAT_ID": "37829",
    "ELEMENT_SET_NO": "999",
    "REV_AT_EPOCH": "11003",
    "BSTAR": "0.00000000000000",
    "MEAN_MOTION_DOT": "-0.00000008",
    "MEAN_MOTION_DDOT": "0.0000000000000",
    "SEMIMAJOR_AXIS": "25508.088",
    "PERIOD": "675.735",
    "APOAPSIS": "19157.820",
    "PERIAPSIS": "19102.086",
    "OBJECT_TYPE": "PAYLOAD",
    "RCS_SIZE": "LARGE",
    "COUNTRY_CODE": "CIS",
    "LAUNCH_DATE": "2011-10-02",
    "SITE": "PKMTR",
    "DECAY_DATE": null,
    "FILE": "4896238",
    "GP_ID": "303330459",
    "TLE_LINE0": "0 COSMOS 2474 (GLONASS)",
    "TLE_LINE1": "1 37829U 11055A   25326.08933641 -.00000008  00000-0  00000-0 0  9992",
    "TLE_LINE2": "2 37829  65.1711  79.8770 0010925 240.2182 118.0116  2.13101202110031"
}